0028P         2021 03 17.8325  1.577916  0.772367  347.6412  346.3505   14.3197  20141021   8.5  6.0  28P/Neujmin                                              MPC 75715
0029P         2019 04 10.9555  5.757553  0.041884   50.2781  312.4189    9.3760  20141021   4.0  4.0  29P/Schwassmann-Wachmann                                 MPC 79344
0030P         2017 08 18.7887  1.877594  0.502290   13.1834  119.7278    8.1300  20141021   9.5  6.0  30P/Reinmuth                                             NK   2729
0031P         2010 10  1.6056  3.422531  0.194141   18.1450  114.1505    4.5473  20141021   5.0  8.0  31P/Schwassmann-Wachmann                                 MPC 79344
0032P         2014 10 17.6008  2.001202  0.556243   53.3364   57.8504    9.9698  20141021   6.5  8.0  32P/Comas Sola                                           MPC 85339
0033P         2016 08 22.2781  2.160227  0.463414   19.0149   66.5142   22.3929  20141021  10.0 12.0  33P/Daniel                                               MPC 84320
0035P         1939 09  8.3171  0.747936  0.973812   29.4456  355.6435   63.5573  20141021   8.5  4.0  35P/Herschel-Rigollet                                     15,  452
0036P         2011 12 22.7838  3.068106  0.262077  200.4452  181.9644    9.9354  20141021   8.5  6.0  36P/Whipple                                              MPC 75716
0037P         2011 12  8.3234  1.597588  0.536616  330.2212  314.6355    8.9802  20141021  10.5  4.8  37P/Forbes                                               MPC 80901
0038P         2018 11 10.2364  1.583071  0.859615  359.5970   78.0883   18.3832  20141021   3.5 12.0  38P/Stephan-Oterma                                        27,  605
0039P         2023 04  6.6150  5.707268  0.228874   89.2107  304.1018    1.4741  20141021   5.0  6.0  39P/Oterma                                               MPC 75716
0040P         2014 11 15.8133  1.819563  0.631638   47.2723  133.8401   11.4928  20141021   5.5 12.0  40P/Vaisala                                              MPC 86231
0041P         2017 04 14.2129  1.047071  0.660675   62.0994  141.0824    9.2291  20141021  10.0 16.0  41P/Tuttle-Giacobini-Kresak                              MPC 62882
0042P         2015 04  8.2884  2.027914  0.584028  147.1439  150.2821    3.9844  20141021  13.0  6.0  42P/Neujmin                                              MPC 79344
0043P         2016 08 19.5400  1.357335  0.594828  191.5709  249.8605   15.9694  20141021   8.0  6.0  43P/Wolf-Harrington                                      MPC 84320
0044P         2015 03 24.1662  2.118589  0.426559   58.2895  286.4666    5.8955  20141021   8.3  6.0  44P/Reinmuth                                             MPC 89313
0045P         2016 12 31.0250  0.531459  0.824216  326.3019   88.9968    4.2522  20141021  13.5  8.0  45P/Honda-Mrkos-Pajdusakova                              MPC 84320
0046P         2013 07  9.3417  1.052602  0.659125  356.3483   82.1656   11.7565  20141021   9.0  6.0  46P/Wirtanen                                             MPC 88330
0047P         2017 06 10.8317  2.815659  0.316823  357.8271  356.9912   13.0334  20141021   1.0 11.2  47P/Ashbrook-Jackson                                     NK   2718
0048P         2011 11  8.6281  2.129207  0.405184  208.0620  116.6266   13.8778  20141021  10.0  6.0  48P/Johnson                                              MPC 75716
0049P         2011 10 19.2934  1.425796  0.600243  332.9218  118.8315   19.0563  20141021  11.3  4.4  49P/Arend-Rigaux                                         MPC 79345
0050P         2016 02  8.1523  1.918357  0.530476   49.2264  355.1824   19.1374  20141021   9.5  6.0  50P/Arend                                                MPC 84320
0051P         2015 08 12.4645  1.699266  0.542449  269.3111   83.6948    5.4246  20141021  10.0  8.0  51P/Harrington                                           MPC 79345
0052P         2014 03  7.5016  1.773079  0.540405  139.5984  336.8516   10.2316  20141021  13.5  6.0  52P/Harrington-Abell                                     MPC 88330
0053P         2016 04 29.8903  2.428933  0.551281  134.1363  148.9203    6.6078  20141021   7.7  4.8  53P/Van Biesbroeck                                       MPC 84320
0054P         2017 04 15.7040  2.182920  0.424497    1.9466  358.8692    6.0588  20141021  10.0  6.0  54P/de Vico-Swift-NEAT                                   NK   2713
0055P         2031 06  7.6678  0.976310  0.905601  172.5915  235.3678  162.4502  20141021  10.0 10.0  55P/Tempel-Tuttle                                        MPC 31070
0056P         2016 07 18.4527  2.507471  0.506948   44.2534  345.9931    8.1474  20141021   8.5  6.0  56P/Slaughter-Burnham                                    MPC 75716
0057P         2015 05 22.2915  1.728761  0.499187  115.2208  188.8137    2.8480  20141021  12.5  6.0  57P/du Toit-Neujmin-Delporte                             MPC 79345
0058P         2012 04  9.7364  1.369026  0.663074  200.3310  160.5750   13.5179  20141021  15.5  6.0  58P/Jackson-Neujmin                                      MPC 65938
0059P         2018 09 15.9288  2.353032  0.476126  127.7903  312.8423    9.3456  20141021   7.0  6.0  59P/Kearns-Kwee                                          MPC 64498
0060P         2012 05 13.8023  1.618843  0.538674  216.4601  267.6748    3.6103  20141021  11.5  6.0  60P/Tsuchinshan                                          MPC 79654
0061P         2015 10  2.1651  2.113669  0.425945  221.9167  163.0223    6.0054  20141021   6.0 10.0  61P/Shajn-Schaldach                                      MPC 79345
0062P         2017 11 15.6112  1.382635  0.597965   30.2819   90.2939    9.7129  20141021   8.0 10.0  62P/Tsuchinshan                                          MPC 62881
0063P         2013 04 10.8951  1.950759  0.651035  169.0568  357.9892   19.7808  20141021  10.5  6.0  63P/Wild                                                 MPC 84320
0064P         2018 11  3.2470  1.388323  0.688064   97.0903  300.1246    8.9391  20141021   8.5 12.0  64P/Swift-Gehrels                                        MPC 66706
0065P         2017 10  4.5574  2.864218  0.261633  210.9522   64.4520    9.2549  20141021   5.0  6.0  65P/Gunn                                                 NK   2591
0066P         2018 05 20.4559  1.285445  0.786561  257.3393   22.0007   18.6687  20141021  12.0  3.6  66P/du Toit                                              MPC 48097
0067P         2015 08 13.0659  1.243219  0.640987   12.7847   50.1430    7.0402  20141021  11.0  4.0  67P/Churyumov-Gerasimenko                                MPC 89011
0068P         2019 11 18.2864  1.766953  0.639156  153.9605  175.3598   11.1399  20141021  10.0  4.0  68P/Klemola                                              MPC 75716
0069P         2011 07 17.9299  2.276998  0.414195  343.6550  104.8507   22.0492  20141021   9.5 12.0  69P/Taylor                                               MPC 77020
0070P         2014 10 20.7735  2.006777  0.454079    1.9923  119.2724    6.6004  20141021  11.0  6.0  70P/Kojima                                               MPC 75717
0071P         2017 06 29.7122  1.578455  0.496043  208.9961   59.5854    9.4563  20141021   9.8  6.0  71P/Clark                                                NK   2721
0072P         2014 07 11.6323  0.784175  0.819139  337.8477   36.1136    9.1694  20141021  17.5 10.0  72P/Denning-Fujikawa                                     MPC 89011
0073P         2017 03 16.7271  0.967899  0.686498  199.4060   69.7708   11.2581  20141021  11.5  6.0  73P/Schwassmann-Wachmann                                 NK   2710
0074P         2018 01 24.1399  3.542139  0.148809   86.6302   77.0676    6.6512  20141021   5.0  6.0  74P/Smirnova-Chernykh                                    MPC 75717
0076P         2013 05  7.6804  1.600980  0.538700    0.0610   84.1255   30.4819  20141021   8.0 12.0  76P/West-Kohoutek-Ikemura                                MPC 82322
0077P         2016 05 14.1666  2.334858  0.354084  196.8791   14.8619   24.3345  20141021   7.0  8.0  77P/Longmore                                             MPC 84320
0078P         2012 01 12.1735  2.011288  0.461690  192.7554  210.5629    6.2529  20141021   5.5  8.0  78P/Gehrels                                              MPC 79654
0079P         2013 08 23.3317  1.123416  0.618671  281.6852  280.6358    3.1454  20141021  16.0  4.0  79P/du Toit-Hartley                                      MPC 82722
0080P         2014 11 10.0373  1.612725  0.599003  339.1305  259.8894   29.9229  20141021   9.0  8.0  80P/Peters-Hartley                                       MPC 89313
0081P         2016 07 20.4258  1.593193  0.538020   41.6860  136.1241    3.2391  20141021   7.0  6.0  81P/Wild                                                 MPC 84320
0082P         2018 06 26.3752  3.632727  0.123584  226.9083  239.3872    1.1271  20141021   5.0  8.0  82P/Gehrels                                              MPC 75717
0084P         2013 07 23.3532  1.835918  0.495523  276.3786  112.3743    7.2858  20141021   9.5  8.0  84P/Giclas                                               MPC 69911
0086P         2015 04  3.3783  2.263582  0.371801  179.1413   72.4098   15.4726  20141021  11.0  6.0  86P/Wild                                                 MPC 79347
0087P         2013 12 19.6036  2.101727  0.389075   24.7263  181.8918    2.6007  20141021   7.2 10.0  87P/Bus                                                  MPC 87068
0088P         2015 04  6.2508  1.358589  0.562980  235.9226   56.6982    4.3826  20141021  11.0  6.0  88P/Howell                                               MPC 87068
0089P         2016 12 14.2248  2.232576  0.406964  249.3984   41.7058   12.0421  20141021  11.5  6.0  89P/Russell                                              MPC 75717
0090P         2017 06 19.2244  2.971969  0.510165   29.3207   13.2774    9.6347  20141021   8.5  6.0  90P/Gehrels                                              NK   2719
